start=new Date('2022-10-04T00:00:00.000Z').valueOf();
sats=[{"COUNTRY_CODE":"US","LAUNCH_DATE":"2022-03-09","ECCENTRICITY":"0.00016480","MEAN_MOTION_DOT":"-0.00000203","CLASSIFICATION_TYPE":"U","BSTAR":"0.00000533700000","ARG_OF_PERICENTER":"50.0783","INCLINATION":"53.2135","CENTER_NAME":"EARTH","MEAN_ANOMALY":"310.0354","MEAN_MOTION_DDOT":"0.0000000000000","MEAN_MOTION":"15.08845161","OBJECT_NAME":"STARLINK-3655","GP_ID":"214088672","RCS_SIZE":"LARGE","PERIAPSIS":"538.590","SEMIMAJOR_AXIS":"6917.865","TIME_SYSTEM":"UTC","REF_FRAME":"TEME","REV_AT_EPOCH":"3183","ELEMENT_SET_NO":"999","FILE":"3590320","RA_OF_ASC_NODE":"265.8728","APOAPSIS":"540.870","TLE_LINE1":"1 51983U 22025AD  22276.28323360 -.00000203  00000-0  53370-5 0  9992","PERIOD":"95.437","SITE":"AFETR","EPHEMERIS_TYPE":"0","OBJECT_TYPE":"PAYLOAD","MEAN_ELEMENT_THEORY":"SGP4","OBJECT_ID":"2022-025AD","DECAY_DATE":null,"NORAD_CAT_ID":"51983","EPOCH":"2022-10-03T06:47:51.383040","TLE_LINE2":"2 51983  53.2135 265.8728 0001648  50.0783 310.0354 15.08845161 31837"},{"TIME_SYSTEM":"UTC","PERIAPSIS":"538.339","SEMIMAJOR_AXIS":"6917.856","OBJECT_NAME":"STARLINK-3664","GP_ID":"214059881","RCS_SIZE":"LARGE","MEAN_MOTION":"15.08847915","FILE":"3590082","APOAPSIS":"541.103","RA_OF_ASC_NODE":"265.1573","REV_AT_EPOCH":"3296","ELEMENT_SET_NO":"999","REF_FRAME":"TEME","MEAN_ELEMENT_THEORY":"SGP4","OBJECT_TYPE":"PAYLOAD","EPHEMERIS_TYPE":"0","PERIOD":"95.437","SITE":"AFETR","TLE_LINE1":"1 51984U 22025AE  22276.44515010  .00000772  00000-0  66616-4 0  9992","TLE_LINE2":"2 51984  53.2171 265.1573 0001998  46.2432 313.8725 15.08847915 32962","EPOCH":"2022-10-03T10:41:00.968640","NORAD_CAT_ID":"51984","DECAY_DATE":null,"OBJECT_ID":"2022-025AE","LAUNCH_DATE":"2022-03-09","ECCENTRICITY":"0.00019980","MEAN_MOTION_DOT":"0.00000772","COUNTRY_CODE":"US","ARG_OF_PERICENTER":"46.2432","BSTAR":"0.00006661600000","CLASSIFICATION_TYPE":"U","CENTER_NAME":"EARTH","INCLINATION":"53.2171","MEAN_MOTION_DDOT":"0.0000000000000","MEAN_ANOMALY":"313.8725"},{"CLASSIFICATION_TYPE":"U","ARG_OF_PERICENTER":"53.0830","BSTAR":"0.00036428000000","LAUNCH_DATE":"2022-03-09","ECCENTRICITY":"0.00019100","MEAN_MOTION_DOT":"0.00005516","COUNTRY_CODE":"US","MEAN_MOTION_DDOT":"0.0000000000000","MEAN_ANOMALY":"307.0337","INCLINATION":"53.2166","CENTER_NAME":"EARTH","REF_FRAME":"TEME","APOAPSIS":"541.030","RA_OF_ASC_NODE":"264.1306","FILE":"3590585","ELEMENT_SET_NO":"999","REV_AT_EPOCH":"3189","RCS_SIZE":"LARGE","GP_ID":"214119179","OBJECT_NAME":"STARLINK-3651","MEAN_MOTION":"15.08852121","TIME_SYSTEM":"UTC","SEMIMAJOR_AXIS":"6917.843","PERIAPSIS":"538.387","DECAY_DATE":null,"OBJECT_ID":"2022-025AF","TLE_LINE2":"2 51985  53.2166 264.1306 0001910  53.0830 307.0337 15.08852121 31892","NORAD_CAT_ID":"51985","EPOCH":"2022-10-03T16:09:34.595712","SITE":"AFETR","PERIOD":"95.437","TLE_LINE1":"1 51985U 22025AF  22276.67331708  .00005516  00000-0  36428-3 0  9996","OBJECT_TYPE":"PAYLOAD","MEAN_ELEMENT_THEORY":"SGP4","EPHEMERIS_TYPE":"0"},{"OBJECT_ID":"2022-025AG","DECAY_DATE":null,"NORAD_CAT_ID":"51986","EPOCH":"2022-10-03T08:55:01.528608","TLE_LINE2":"2 51986  53.2170 265.4912 0002123  43.0995 317.0163 15.08857727 31854","TLE_LINE1":"1 51986U 22025AG  22276.37154547  .00001775  00000-0  12953-3 0  9998","PERIOD":"95.436","SITE":"AFETR","EPHEMERIS_TYPE":"0","OBJECT_TYPE":"PAYLOAD","MEAN_ELEMENT_THEORY":"SGP4","REF_FRAME":"TEME","REV_AT_EPOCH":"3185","ELEMENT_SET_NO":"999","FILE":"3590320","APOAPSIS":"541.160","RA_OF_ASC_NODE":"265.4912","MEAN_MOTION":"15.08857727","OBJECT_NAME":"STARLINK-3645","GP_ID":"214089417","RCS_SIZE":"LARGE","PERIAPSIS":"538.223","SEMIMAJOR_AXIS":"6917.826","TIME_SYSTEM":"UTC","MEAN_ANOMALY":"317.0163","MEAN_MOTION_DDOT":"0.0000000000000","INCLINATION":"53.2170","CENTER_NAME":"EARTH","CLASSIFICATION_TYPE":"U","BSTAR":"0.00012953000000","ARG_OF_PERICENTER":"43.0995","COUNTRY_CODE":"US","LAUNCH_DATE":"2022-03-09","MEAN_MOTION_DOT":"0.00001775","ECCENTRICITY":"0.00021230"},{"TLE_LINE2":"2 51987  53.2173 265.1234 0001963  47.1239 312.9918 15.08866541 32957","NORAD_CAT_ID":"51987","EPOCH":"2022-10-03T10:51:37.685664","DECAY_DATE":null,"OBJECT_ID":"2022-025AH","MEAN_ELEMENT_THEORY":"SGP4","OBJECT_TYPE":"PAYLOAD","EPHEMERIS_TYPE":"0","SITE":"AFETR","PERIOD":"95.436","TLE_LINE1":"1 51987U 22025AH  22276.45251951  .00016561  00000-0  10554-2 0  9998","APOAPSIS":"541.022","RA_OF_ASC_NODE":"265.1234","FILE":"3590369","ELEMENT_SET_NO":"999","REV_AT_EPOCH":"3295","REF_FRAME":"TEME","TIME_SYSTEM":"UTC","SEMIMAJOR_AXIS":"6917.799","PERIAPSIS":"538.306","RCS_SIZE":"LARGE","OBJECT_NAME":"STARLINK-3644","GP_ID":"214091555","MEAN_MOTION":"15.08866541","MEAN_MOTION_DDOT":"0.0000000000000","MEAN_ANOMALY":"312.9918","CENTER_NAME":"EARTH","INCLINATION":"53.2173","ARG_OF_PERICENTER":"47.1239","BSTAR":"0.00105540000000","CLASSIFICATION_TYPE":"U","ECCENTRICITY":"0.00019630","LAUNCH_DATE":"2022-03-09","MEAN_MOTION_DOT":"0.00016561","COUNTRY_CODE":"US"},{"TIME_SYSTEM":"UTC","SEMIMAJOR_AXIS":"6917.849","PERIAPSIS":"538.611","RCS_SIZE":"LARGE","GP_ID":"214120924","OBJECT_NAME":"STARLINK-3640","MEAN_MOTION":"15.08850256","RA_OF_ASC_NODE":"264.0221","APOAPSIS":"540.817","FILE":"3590585","ELEMENT_SET_NO":"999","REV_AT_EPOCH":"3190","REF_FRAME":"TEME","MEAN_ELEMENT_THEORY":"SGP4","OBJECT_TYPE":"PAYLOAD","EPHEMERIS_TYPE":"0","SITE":"AFETR","PERIOD":"95.437","TLE_LINE1":"1 51988U 22025AJ  22276.69906610  .00002425  00000-0  17036-3 0  9991","TLE_LINE2":"2 51988  53.2188 264.0221 0001595  47.4228 312.6899 15.08850256 31905","NORAD_CAT_ID":"51988","EPOCH":"2022-10-03T16:46:39.311040","DECAY_DATE":null,"OBJECT_ID":"2022-025AJ","MEAN_MOTION_DOT":"0.00002425","LAUNCH_DATE":"2022-03-09","ECCENTRICITY":"0.00015950","COUNTRY_CODE":"US","ARG_OF_PERICENTER":"47.4228","BSTAR":"0.00017036000000","CLASSIFICATION_TYPE":"U","CENTER_NAME":"EARTH","INCLINATION":"53.2188","MEAN_MOTION_DDOT":"0.0000000000000","MEAN_ANOMALY":"312.6899"},{"FILE":"3590320","RA_OF_ASC_NODE":"265.4426","APOAPSIS":"541.254","REV_AT_EPOCH":"3185","ELEMENT_SET_NO":"999","REF_FRAME":"TEME","TIME_SYSTEM":"UTC","PERIAPSIS":"538.170","SEMIMAJOR_AXIS":"6917.847","GP_ID":"214089672","OBJECT_NAME":"STARLINK-3642","RCS_SIZE":"LARGE","MEAN_MOTION":"15.08851028","TLE_LINE2":"2 51989  53.2164 265.4426 0002229  40.3994 319.7163 15.08851028 31853","NORAD_CAT_ID":"51989","EPOCH":"2022-10-03T09:10:56.086176","DECAY_DATE":null,"OBJECT_ID":"2022-025AK","OBJECT_TYPE":"PAYLOAD","MEAN_ELEMENT_THEORY":"SGP4","EPHEMERIS_TYPE":"0","PERIOD":"95.437","SITE":"AFETR","TLE_LINE1":"1 51989U 22025AK  22276.38259359  .00001881  00000-0  13622-3 0  9991","ARG_OF_PERICENTER":"40.3994","BSTAR":"0.00013622000000","CLASSIFICATION_TYPE":"U","LAUNCH_DATE":"2022-03-09","MEAN_MOTION_DOT":"0.00001881","ECCENTRICITY":"0.00022290","COUNTRY_CODE":"US","MEAN_MOTION_DDOT":"0.0000000000000","MEAN_ANOMALY":"319.7163","CENTER_NAME":"EARTH","INCLINATION":"53.2164"},{"INCLINATION":"53.2164","CENTER_NAME":"EARTH","MEAN_MOTION_DDOT":"0.0000000000000","MEAN_ANOMALY":"289.5731","LAUNCH_DATE":"2022-03-09","MEAN_MOTION_DOT":"0.00001915","ECCENTRICITY":"0.00017900","COUNTRY_CODE":"US","CLASSIFICATION_TYPE":"U","ARG_OF_PERICENTER":"70.5455","BSTAR":"0.00013833000000","SITE":"AFETR","PERIOD":"95.437","TLE_LINE1":"1 51990U 22025AL  22276.88123292  .00001915  00000-0  13833-3 0  9996","OBJECT_TYPE":"PAYLOAD","MEAN_ELEMENT_THEORY":"SGP4","EPHEMERIS_TYPE":"0","DECAY_DATE":null,"OBJECT_ID":"2022-025AL","TLE_LINE2":"2 51990  53.2164 243.1916 0001790  70.5455 289.5731 15.08848490 32205","NORAD_CAT_ID":"51990","EPOCH":"2022-10-03T21:08:58.524288","RCS_SIZE":"LARGE","OBJECT_NAME":"STARLINK-3657","GP_ID":"214119929","MEAN_MOTION":"15.08848490","TIME_SYSTEM":"UTC","SEMIMAJOR_AXIS":"6917.854","PERIAPSIS":"538.481","REF_FRAME":"TEME","RA_OF_ASC_NODE":"243.1916","APOAPSIS":"540.958","FILE":"3590585","ELEMENT_SET_NO":"999","REV_AT_EPOCH":"3220"},{"MEAN_ELEMENT_THEORY":"SGP4","OBJECT_TYPE":"PAYLOAD","EPHEMERIS_TYPE":"0","PERIOD":"95.437","SITE":"AFETR","TLE_LINE1":"1 51991U 22025AM  22276.44147253  .00008688  00000-0  56307-3 0  9999","TLE_LINE2":"2 51991  53.2164 265.1814 0002088  44.8562 315.2599 15.08852765 32952","NORAD_CAT_ID":"51991","EPOCH":"2022-10-03T10:35:43.226592","DECAY_DATE":null,"OBJECT_ID":"2022-025AM","TIME_SYSTEM":"UTC","PERIAPSIS":"538.262","SEMIMAJOR_AXIS":"6917.841","GP_ID":"214059632","OBJECT_NAME":"STARLINK-3652","RCS_SIZE":"LARGE","MEAN_MOTION":"15.08852765","FILE":"3590085","APOAPSIS":"541.151","RA_OF_ASC_NODE":"265.1814","REV_AT_EPOCH":"3295","ELEMENT_SET_NO":"999","REF_FRAME":"TEME","CENTER_NAME":"EARTH","INCLINATION":"53.2164","MEAN_MOTION_DDOT":"0.0000000000000","MEAN_ANOMALY":"315.2599","LAUNCH_DATE":"2022-03-09","MEAN_MOTION_DOT":"0.00008688","ECCENTRICITY":"0.00020880","COUNTRY_CODE":"US","ARG_OF_PERICENTER":"44.8562","BSTAR":"0.00056307000000","CLASSIFICATION_TYPE":"U"},{"MEAN_ELEMENT_THEORY":"SGP4","OBJECT_TYPE":"PAYLOAD","EPHEMERIS_TYPE":"0","SITE":"AFETR","PERIOD":"95.438","TLE_LINE1":"1 51992U 22025AN  22276.60523431 -.00000910  00000-0 -39077-4 0  9992","TLE_LINE2":"2 51992  53.2176 244.4411 0001911  43.1083 317.0059 15.08836360 31732","NORAD_CAT_ID":"51992","EPOCH":"2022-10-03T14:31:32.244384","DECAY_DATE":null,"OBJECT_ID":"2022-025AN","TIME_SYSTEM":"UTC","SEMIMAJOR_AXIS":"6917.892","PERIAPSIS":"538.435","RCS_SIZE":"LARGE","GP_ID":"214120425","OBJECT_NAME":"STARLINK-3643","MEAN_MOTION":"15.08836360","RA_OF_ASC_NODE":"244.4411","APOAPSIS":"541.079","FILE":"3590585","ELEMENT_SET_NO":"999","REV_AT_EPOCH":"3173","REF_FRAME":"TEME","CENTER_NAME":"EARTH","INCLINATION":"53.2176","MEAN_MOTION_DDOT":"0.0000000000000","MEAN_ANOMALY":"317.0059","ECCENTRICITY":"0.00019110","LAUNCH_DATE":"2022-03-09","MEAN_MOTION_DOT":"-0.00000910","COUNTRY_CODE":"US","ARG_OF_PERICENTER":"43.1083","BSTAR":"-0.00003907700000","CLASSIFICATION_TYPE":"U"}];
